[{"OBJECT_NAME":"HULIANWANG DIGUI-39","OBJECT_ID":"2025-159E","EPOCH":"2026-03-09T22:54:37.619712","MEAN_MOTION":13.24420172,"ECCENTRICITY":0.00013922,"INCLINATION":86.4971,"RA_OF_ASC_NODE":315.9415,"ARG_OF_PERICENTER":75.4668,"MEAN_ANOMALY":284.6621,"EPHEMERIS_TYPE":0,"CLASSIFICATION_TYPE":"U","NORAD_CAT_ID":64960,"ELEMENT_SET_NO":999,"REV_AT_EPOCH":2999,"BSTAR":9.9833013e-5,"MEAN_MOTION_DOT":5.8e-7,"MEAN_MOTION_DDOT":0},{"OBJECT_NAME":"DELTA 1 DEB","OBJECT_ID":"1975-052BR","EPOCH":"2026-03-09T22:05:41.353728","MEAN_MOTION":13.31704403,"ECCENTRICITY":0.03960179,"INCLINATION":99.4006,"RA_OF_ASC_NODE":214.0217,"ARG_OF_PERICENTER":180.0876,"MEAN_ANOMALY":305.9392,"EPHEMERIS_TYPE":0,"CLASSIFICATION_TYPE":"U","NORAD_CAT_ID":21347,"ELEMENT_SET_NO":999,"REV_AT_EPOCH":65136,"BSTAR":0.011227599,"MEAN_MOTION_DOT":8.3e-5,"MEAN_MOTION_DDOT":0}]
